ONEWEB-0425             
1 51628U 22012G   26077.16584396  .00000295  00000+0  80928-3 0  9998
2 51628  87.8795  54.3823 0001570  79.5618 280.5686 13.10369805197404
ONEWEB-0428             
1 51629U 22012H   26077.29864245  .00000652  00000+0  18310-2 0  9999
2 51629  87.8787  54.3680 0001890  85.3665 274.7678 13.10375651197388
ONEWEB-0431             
1 51630U 22012J   26077.19225572 -.00000685  00000+0 -19979-2 0  9994
2 51630  87.8793  54.3753 0002537  85.1085 275.0332 13.10374982197423
ONEWEB-0434             
1 51631U 22012K   26077.16929792  .00000151  00000+0  39739-3 0  9990
2 51631  87.8783  54.4078 0001255  76.0878 284.0389 13.10370073197406
ONEWEB-0435             
1 51632U 22012L   26077.17750266  .00010337  00000+0  29561-1 0  9997
2 51632  87.8784  54.3968 0002109  96.0885 264.0482 13.10331602197399
ONEWEB-0436             
1 51633U 22012M   26077.08880706  .00000046  00000+0  84758-4 0  9999
2 51633  87.9175  23.9283 0002019  84.9288 275.2074 13.17647391201681
ONEWEB-0438             
1 51634U 22012N   26077.16086664  .00000515  00000+0  14398-2 0  9992
2 51634  87.8788  54.4008 0001730  80.7771 279.3552 13.10370868197422
ONEWEB-0439             
1 51635U 22012P   26077.16418866  .00000354  00000+0  97670-3 0  9992
2 51635  87.8783  54.3892 0001810  86.8600 273.2734 13.10371108197406
ONEWEB-0442             
1 51636U 22012Q   26077.08123504 -.00000053  00000+0 -17086-3 0  9997
2 51636  87.9166  23.9684 0001532  61.7130 298.4157 13.17649669201675
ONEWEB-0443             
1 51637U 22012R   26077.10062860  .00000040  00000+0  68919-4 0  9994
2 51637  87.9165  23.9672 0001602  86.7591 273.3724 13.17648769201726
ONEWEB-0444             
1 51638U 22012S   26077.30694474  .00000710  00000+0  19987-2 0  9992
2 51638  87.8788  54.3595 0001868  85.8063 274.3277 13.10372994197430
ONEWEB-0445             
1 51639U 22012T   26077.17579844 -.00000225  00000+0 -68145-3 0  9995
2 51639  87.8793  54.3657 0002059  80.2467 279.8893 13.10370793197424
ONEWEB-0446             
1 51640U 22012U   26077.30528622  .00000581  00000+0  16274-2 0  9998
2 51640  87.8788  54.3755 0001981  82.5145 277.6207 13.10371896197420
ONEWEB-0448             
1 51641U 22012V   26077.15755065  .00000623  00000+0  17472-2 0  9993
2 51641  87.8783  54.4035 0001924  86.7372 273.3975 13.10370970197374
ONEWEB-0449             
1 51642U 22012W   26077.16252521  .00000413  00000+0  11456-2 0  9997
2 51642  87.8792  54.3819 0001412  77.9899 282.1386 13.10370755197388
ONEWEB-0451             
1 51643U 22012X   26077.08544811 -.00000008  00000+0 -53721-4 0  9990
2 51643  87.9173  23.9241 0001742  78.3027 281.8300 13.17649861201661
ONEWEB-0452             
1 51644U 22012Y   26077.08375911 -.00000032  00000+0 -11626-3 0  9998
2 51644  87.9165  23.9702 0001578  83.2426 276.8885 13.17650876201671
