[{"OBJECT_NAME":"ONEWEB-0425","OBJECT_ID":"2022-012G","EPOCH":"2026-03-18T03:58:48.918144","MEAN_MOTION":13.10369805,"ECCENTRICITY":0.00015708,"INCLINATION":87.8795,"RA_OF_ASC_NODE":54.3823,"ARG_OF_PERICENTER":79.5618,"MEAN_ANOMALY":280.5686,"EPHEMERIS_TYPE":0,"CLASSIFICATION_TYPE":"U","NORAD_CAT_ID":51628,"ELEMENT_SET_NO":999,"REV_AT_EPOCH":19740,"BSTAR":0.00080928095,"MEAN_MOTION_DOT":2.95e-6,"MEAN_MOTION_DDOT":0},{"OBJECT_NAME":"ONEWEB-0428","OBJECT_ID":"2022-012H","EPOCH":"2026-03-18T07:10:02.707680","MEAN_MOTION":13.10375651,"ECCENTRICITY":0.00018905,"INCLINATION":87.8787,"RA_OF_ASC_NODE":54.368,"ARG_OF_PERICENTER":85.3665,"MEAN_ANOMALY":274.7678,"EPHEMERIS_TYPE":0,"CLASSIFICATION_TYPE":"U","NORAD_CAT_ID":51629,"ELEMENT_SET_NO":999,"REV_AT_EPOCH":19738,"BSTAR":0.001830959,"MEAN_MOTION_DOT":6.52e-6,"MEAN_MOTION_DDOT":0},{"OBJECT_NAME":"ONEWEB-0431","OBJECT_ID":"2022-012J","EPOCH":"2026-03-18T04:36:50.894208","MEAN_MOTION":13.10374982,"ECCENTRICITY":0.00025377,"INCLINATION":87.8793,"RA_OF_ASC_NODE":54.3753,"ARG_OF_PERICENTER":85.1085,"MEAN_ANOMALY":275.0332,"EPHEMERIS_TYPE":0,"CLASSIFICATION_TYPE":"U","NORAD_CAT_ID":51630,"ELEMENT_SET_NO":999,"REV_AT_EPOCH":19742,"BSTAR":-0.0019978738,"MEAN_MOTION_DOT":-6.85e-6,"MEAN_MOTION_DDOT":0},{"OBJECT_NAME":"ONEWEB-0434","OBJECT_ID":"2022-012K","EPOCH":"2026-03-18T04:03:47.340288","MEAN_MOTION":13.10370073,"ECCENTRICITY":0.00012552,"INCLINATION":87.8783,"RA_OF_ASC_NODE":54.4078,"ARG_OF_PERICENTER":76.0878,"MEAN_ANOMALY":284.0389,"EPHEMERIS_TYPE":0,"CLASSIFICATION_TYPE":"U","NORAD_CAT_ID":51631,"ELEMENT_SET_NO":999,"REV_AT_EPOCH":19740,"BSTAR":0.00039739488,"MEAN_MOTION_DOT":1.51e-6,"MEAN_MOTION_DDOT":0},{"OBJECT_NAME":"ONEWEB-0435","OBJECT_ID":"2022-012L","EPOCH":"2026-03-18T04:15:36.229824","MEAN_MOTION":13.10331602,"ECCENTRICITY":0.00021093,"INCLINATION":87.8784,"RA_OF_ASC_NODE":54.3968,"ARG_OF_PERICENTER":96.0885,"MEAN_ANOMALY":264.0482,"EPHEMERIS_TYPE":0,"CLASSIFICATION_TYPE":"U","NORAD_CAT_ID":51632,"ELEMENT_SET_NO":999,"REV_AT_EPOCH":19739,"BSTAR":0.029560745,"MEAN_MOTION_DOT":0.00010337,"MEAN_MOTION_DDOT":0},{"OBJECT_NAME":"ONEWEB-0436","OBJECT_ID":"2022-012M","EPOCH":"2026-03-18T02:07:52.929984","MEAN_MOTION":13.17647391,"ECCENTRICITY":0.00020192,"INCLINATION":87.9175,"RA_OF_ASC_NODE":23.9283,"ARG_OF_PERICENTER":84.9288,"MEAN_ANOMALY":275.2074,"EPHEMERIS_TYPE":0,"CLASSIFICATION_TYPE":"U","NORAD_CAT_ID":51633,"ELEMENT_SET_NO":999,"REV_AT_EPOCH":20168,"BSTAR":8.4758353e-5,"MEAN_MOTION_DOT":4.6e-7,"MEAN_MOTION_DDOT":0},{"OBJECT_NAME":"ONEWEB-0438","OBJECT_ID":"2022-012N","EPOCH":"2026-03-18T03:51:38.877696","MEAN_MOTION":13.10370868,"ECCENTRICITY":0.00017305,"INCLINATION":87.8788,"RA_OF_ASC_NODE":54.4008,"ARG_OF_PERICENTER":80.7771,"MEAN_ANOMALY":279.3552,"EPHEMERIS_TYPE":0,"CLASSIFICATION_TYPE":"U","NORAD_CAT_ID":51634,"ELEMENT_SET_NO":999,"REV_AT_EPOCH":19742,"BSTAR":0.0014397644,"MEAN_MOTION_DOT":5.15e-6,"MEAN_MOTION_DDOT":0},{"OBJECT_NAME":"ONEWEB-0439","OBJECT_ID":"2022-012P","EPOCH":"2026-03-18T03:56:25.900224","MEAN_MOTION":13.10371108,"ECCENTRICITY":0.00018107,"INCLINATION":87.8783,"RA_OF_ASC_NODE":54.3892,"ARG_OF_PERICENTER":86.86,"MEAN_ANOMALY":273.2734,"EPHEMERIS_TYPE":0,"CLASSIFICATION_TYPE":"U","NORAD_CAT_ID":51635,"ELEMENT_SET_NO":999,"REV_AT_EPOCH":19740,"BSTAR":0.00097669705,"MEAN_MOTION_DOT":3.54e-6,"MEAN_MOTION_DDOT":0},{"OBJECT_NAME":"ONEWEB-0442","OBJECT_ID":"2022-012Q","EPOCH":"2026-03-18T01:56:58.707456","MEAN_MOTION":13.17649669,"ECCENTRICITY":0.00015322,"INCLINATION":87.9166,"RA_OF_ASC_NODE":23.9684,"ARG_OF_PERICENTER":61.713,"MEAN_ANOMALY":298.4157,"EPHEMERIS_TYPE":0,"CLASSIFICATION_TYPE":"U","NORAD_CAT_ID":51636,"ELEMENT_SET_NO":999,"REV_AT_EPOCH":20167,"BSTAR":-0.00017085644,"MEAN_MOTION_DOT":-5.3e-7,"MEAN_MOTION_DDOT":0},{"OBJECT_NAME":"ONEWEB-0443","OBJECT_ID":"2022-012R","EPOCH":"2026-03-18T02:24:54.311040","MEAN_MOTION":13.17648769,"ECCENTRICITY":0.00016024,"INCLINATION":87.9165,"RA_OF_ASC_NODE":23.9672,"ARG_OF_PERICENTER":86.7591,"MEAN_ANOMALY":273.3724,"EPHEMERIS_TYPE":0,"CLASSIFICATION_TYPE":"U","NORAD_CAT_ID":51637,"ELEMENT_SET_NO":999,"REV_AT_EPOCH":20172,"BSTAR":6.8919268e-5,"MEAN_MOTION_DOT":4.0e-7,"MEAN_MOTION_DDOT":0},{"OBJECT_NAME":"ONEWEB-0444","OBJECT_ID":"2022-012S","EPOCH":"2026-03-18T07:22:00.025536","MEAN_MOTION":13.10372994,"ECCENTRICITY":0.0001868,"INCLINATION":87.8788,"RA_OF_ASC_NODE":54.3595,"ARG_OF_PERICENTER":85.8063,"MEAN_ANOMALY":274.3277,"EPHEMERIS_TYPE":0,"CLASSIFICATION_TYPE":"U","NORAD_CAT_ID":51638,"ELEMENT_SET_NO":999,"REV_AT_EPOCH":19743,"BSTAR":0.0019987103,"MEAN_MOTION_DOT":7.1e-6,"MEAN_MOTION_DDOT":0},{"OBJECT_NAME":"ONEWEB-0445","OBJECT_ID":"2022-012T","EPOCH":"2026-03-18T04:13:08.985216","MEAN_MOTION":13.10370793,"ECCENTRICITY":0.00020592,"INCLINATION":87.8793,"RA_OF_ASC_NODE":54.3657,"ARG_OF_PERICENTER":80.2467,"MEAN_ANOMALY":279.8893,"EPHEMERIS_TYPE":0,"CLASSIFICATION_TYPE":"U","NORAD_CAT_ID":51639,"ELEMENT_SET_NO":999,"REV_AT_EPOCH":19742,"BSTAR":-0.00068144856,"MEAN_MOTION_DOT":-2.25e-6,"MEAN_MOTION_DDOT":0},{"OBJECT_NAME":"ONEWEB-0446","OBJECT_ID":"2022-012U","EPOCH":"2026-03-18T07:19:36.729408","MEAN_MOTION":13.10371896,"ECCENTRICITY":0.00019815,"INCLINATION":87.8788,"RA_OF_ASC_NODE":54.3755,"ARG_OF_PERICENTER":82.5145,"MEAN_ANOMALY":277.6207,"EPHEMERIS_TYPE":0,"CLASSIFICATION_TYPE":"U","NORAD_CAT_ID":51640,"ELEMENT_SET_NO":999,"REV_AT_EPOCH":19742,"BSTAR":0.0016273631,"MEAN_MOTION_DOT":5.81e-6,"MEAN_MOTION_DDOT":0},{"OBJECT_NAME":"ONEWEB-0448","OBJECT_ID":"2022-012V","EPOCH":"2026-03-18T03:46:52.376160","MEAN_MOTION":13.1037097,"ECCENTRICITY":0.00019245,"INCLINATION":87.8783,"RA_OF_ASC_NODE":54.4035,"ARG_OF_PERICENTER":86.7372,"MEAN_ANOMALY":273.3975,"EPHEMERIS_TYPE":0,"CLASSIFICATION_TYPE":"U","NORAD_CAT_ID":51641,"ELEMENT_SET_NO":999,"REV_AT_EPOCH":19737,"BSTAR":0.0017472422,"MEAN_MOTION_DOT":6.23e-6,"MEAN_MOTION_DDOT":0},{"OBJECT_NAME":"ONEWEB-0449","OBJECT_ID":"2022-012W","EPOCH":"2026-03-18T03:54:02.178144","MEAN_MOTION":13.10370755,"ECCENTRICITY":0.00014121,"INCLINATION":87.8792,"RA_OF_ASC_NODE":54.3819,"ARG_OF_PERICENTER":77.9899,"MEAN_ANOMALY":282.1386,"EPHEMERIS_TYPE":0,"CLASSIFICATION_TYPE":"U","NORAD_CAT_ID":51642,"ELEMENT_SET_NO":999,"REV_AT_EPOCH":19738,"BSTAR":0.00114557,"MEAN_MOTION_DOT":4.13e-6,"MEAN_MOTION_DDOT":0},{"OBJECT_NAME":"ONEWEB-0451","OBJECT_ID":"2022-012X","EPOCH":"2026-03-18T02:03:02.716704","MEAN_MOTION":13.17649861,"ECCENTRICITY":0.00017427,"INCLINATION":87.9173,"RA_OF_ASC_NODE":23.9241,"ARG_OF_PERICENTER":78.3027,"MEAN_ANOMALY":281.83,"EPHEMERIS_TYPE":0,"CLASSIFICATION_TYPE":"U","NORAD_CAT_ID":51643,"ELEMENT_SET_NO":999,"REV_AT_EPOCH":20166,"BSTAR":-5.372052e-5,"MEAN_MOTION_DOT":-8.0e-8,"MEAN_MOTION_DDOT":0},{"OBJECT_NAME":"ONEWEB-0452","OBJECT_ID":"2022-012Y","EPOCH":"2026-03-18T02:00:36.787104","MEAN_MOTION":13.17650876,"ECCENTRICITY":0.00015787,"INCLINATION":87.9165,"RA_OF_ASC_NODE":23.9702,"ARG_OF_PERICENTER":83.2426,"MEAN_ANOMALY":276.8885,"EPHEMERIS_TYPE":0,"CLASSIFICATION_TYPE":"U","NORAD_CAT_ID":51644,"ELEMENT_SET_NO":999,"REV_AT_EPOCH":20167,"BSTAR":-0.00011625688,"MEAN_MOTION_DOT":-3.2e-7,"MEAN_MOTION_DDOT":0}]
